CCSDS_OMM_VERS = 2.0
CREATION_DATE  = 
ORIGINATOR     = 

OBJECT_NAME    = KUIPER-00186
OBJECT_ID      = 2025-301H
CENTER_NAME    = EARTH
REF_FRAME      = TEME
TIME_SYSTEM    = UTC
MEAN_ELEMENT_THEORY = SGP/SGP4

EPOCH          = 2025-12-25T22:00:01.999584
MEAN_MOTION    = 15.35002429
ECCENTRICITY   = .00076144
INCLINATION    = 51.8684
RA_OF_ASC_NODE = 61.6205
ARG_OF_PERICENTER = 130.0723
MEAN_ANOMALY   = 206.3314

EPHEMERIS_TYPE = 0
CLASSIFICATION_TYPE = U
NORAD_CAT_ID   = 67140
ELEMENT_SET_NO = 999
REV_AT_EPOCH   = 130
BSTAR          = .22778587E-3
MEAN_MOTION_DOT = .7483E-4
MEAN_MOTION_DDOT = 0

CCSDS_OMM_VERS = 2.0
CREATION_DATE  = 
ORIGINATOR     = 

OBJECT_NAME    = KUIPER-00187
OBJECT_ID      = 2025-301J
CENTER_NAME    = EARTH
REF_FRAME      = TEME
TIME_SYSTEM    = UTC
MEAN_ELEMENT_THEORY = SGP/SGP4

EPOCH          = 2025-12-25T22:00:01.999584
MEAN_MOTION    = 15.35819131
ECCENTRICITY   = .00044512
INCLINATION    = 51.8713
RA_OF_ASC_NODE = 61.5624
ARG_OF_PERICENTER = 115.9009
MEAN_ANOMALY   = 248.3499

EPHEMERIS_TYPE = 0
CLASSIFICATION_TYPE = U
NORAD_CAT_ID   = 67141
ELEMENT_SET_NO = 999
REV_AT_EPOCH   = 218
BSTAR          = .28608455E-3
MEAN_MOTION_DOT = .9754E-4
MEAN_MOTION_DDOT = 0

CCSDS_OMM_VERS = 2.0
CREATION_DATE  = 
ORIGINATOR     = 

OBJECT_NAME    = KUIPER-00188
OBJECT_ID      = 2025-301K
CENTER_NAME    = EARTH
REF_FRAME      = TEME
TIME_SYSTEM    = UTC
MEAN_ELEMENT_THEORY = SGP/SGP4

EPOCH          = 2025-12-25T22:00:01.999584
MEAN_MOTION    = 15.34911498
ECCENTRICITY   = .00073791
INCLINATION    = 51.8695
RA_OF_ASC_NODE = 61.6270
ARG_OF_PERICENTER = 134.7389
MEAN_ANOMALY   = 198.2882

EPHEMERIS_TYPE = 0
CLASSIFICATION_TYPE = U
NORAD_CAT_ID   = 67142
ELEMENT_SET_NO = 999
REV_AT_EPOCH   = 130
BSTAR          = .22031155E-3
MEAN_MOTION_DOT = .7202E-4
MEAN_MOTION_DDOT = 0

CCSDS_OMM_VERS = 2.0
CREATION_DATE  = 
ORIGINATOR     = 

OBJECT_NAME    = KUIPER-00191
OBJECT_ID      = 2025-301L
CENTER_NAME    = EARTH
REF_FRAME      = TEME
TIME_SYSTEM    = UTC
MEAN_ELEMENT_THEORY = SGP/SGP4

EPOCH          = 2025-12-25T22:00:01.999584
MEAN_MOTION    = 15.35141234
ECCENTRICITY   = .00066966
INCLINATION    = 51.8674
RA_OF_ASC_NODE = 61.6113
ARG_OF_PERICENTER = 131.7849
MEAN_ANOMALY   = 209.3580

EPHEMERIS_TYPE = 0
CLASSIFICATION_TYPE = U
NORAD_CAT_ID   = 67143
ELEMENT_SET_NO = 999
REV_AT_EPOCH   = 241
BSTAR          = .23900058E-3
MEAN_MOTION_DOT = .7906E-4
MEAN_MOTION_DDOT = 0

CCSDS_OMM_VERS = 2.0
CREATION_DATE  = 
ORIGINATOR     = 

OBJECT_NAME    = KUIPER-00196
OBJECT_ID      = 2025-301M
CENTER_NAME    = EARTH
REF_FRAME      = TEME
TIME_SYSTEM    = UTC
MEAN_ELEMENT_THEORY = SGP/SGP4

EPOCH          = 2025-12-25T22:00:01.999584
MEAN_MOTION    = 15.36019472
ECCENTRICITY   = .00039275
INCLINATION    = 51.8733
RA_OF_ASC_NODE = 61.5432
ARG_OF_PERICENTER = 101.6176
MEAN_ANOMALY   = 270.5544

EPHEMERIS_TYPE = 0
CLASSIFICATION_TYPE = U
NORAD_CAT_ID   = 67144
ELEMENT_SET_NO = 999
REV_AT_EPOCH   = 212
BSTAR          = .29994043E-3
MEAN_MOTION_DOT = .10313E-3
MEAN_MOTION_DDOT = 0

CCSDS_OMM_VERS = 2.0
CREATION_DATE  = 
ORIGINATOR     = 

OBJECT_NAME    = KUIPER-00204
OBJECT_ID      = 2025-301N
CENTER_NAME    = EARTH
REF_FRAME      = TEME
TIME_SYSTEM    = UTC
MEAN_ELEMENT_THEORY = SGP/SGP4

EPOCH          = 2025-12-25T22:00:01.999584
MEAN_MOTION    = 15.36531871
ECCENTRICITY   = .00019708
INCLINATION    = 51.8746
RA_OF_ASC_NODE = 61.4998
ARG_OF_PERICENTER = 77.0156
MEAN_ANOMALY   = 312.8961

EPHEMERIS_TYPE = 0
CLASSIFICATION_TYPE = U
NORAD_CAT_ID   = 67145
ELEMENT_SET_NO = 999
REV_AT_EPOCH   = 250
BSTAR          = .36166684E-3
MEAN_MOTION_DOT = .1273E-3
MEAN_MOTION_DDOT = 0

CCSDS_OMM_VERS = 2.0
CREATION_DATE  = 
ORIGINATOR     = 

OBJECT_NAME    = KUIPER-00210
OBJECT_ID      = 2025-301P
CENTER_NAME    = EARTH
REF_FRAME      = TEME
TIME_SYSTEM    = UTC
MEAN_ELEMENT_THEORY = SGP/SGP4

EPOCH          = 2025-12-25T22:00:01.999584
MEAN_MOTION    = 15.34155631
ECCENTRICITY   = .00105357
INCLINATION    = 51.8600
RA_OF_ASC_NODE = 61.6816
ARG_OF_PERICENTER = 149.0517
MEAN_ANOMALY   = 156.9944

EPHEMERIS_TYPE = 0
CLASSIFICATION_TYPE = U
NORAD_CAT_ID   = 67146
ELEMENT_SET_NO = 999
REV_AT_EPOCH   = 255
BSTAR          = .16024771E-3
MEAN_MOTION_DOT = .5007E-4
MEAN_MOTION_DDOT = 0

CCSDS_OMM_VERS = 2.0
CREATION_DATE  = 
ORIGINATOR     = 

OBJECT_NAME    = KUIPER-00221
OBJECT_ID      = 2025-301Q
CENTER_NAME    = EARTH
REF_FRAME      = TEME
TIME_SYSTEM    = UTC
MEAN_ELEMENT_THEORY = SGP/SGP4

EPOCH          = 2025-12-25T22:00:01.999584
MEAN_MOTION    = 15.35722801
ECCENTRICITY   = .00051064
INCLINATION    = 51.8720
RA_OF_ASC_NODE = 61.5679
ARG_OF_PERICENTER = 112.7419
MEAN_ANOMALY   = 248.2860

EPHEMERIS_TYPE = 0
CLASSIFICATION_TYPE = U
NORAD_CAT_ID   = 67147
ELEMENT_SET_NO = 999
REV_AT_EPOCH   = 187
BSTAR          = .27856071E-3
MEAN_MOTION_DOT = .9457E-4
MEAN_MOTION_DDOT = 0

CCSDS_OMM_VERS = 2.0
CREATION_DATE  = 
ORIGINATOR     = 

OBJECT_NAME    = KUIPER-00232
OBJECT_ID      = 2025-301R
CENTER_NAME    = EARTH
REF_FRAME      = TEME
TIME_SYSTEM    = UTC
MEAN_ELEMENT_THEORY = SGP/SGP4

EPOCH          = 2025-12-25T22:00:01.999584
MEAN_MOTION    = 15.36693668
ECCENTRICITY   = .00015407
INCLINATION    = 51.8744
RA_OF_ASC_NODE = 61.4915
ARG_OF_PERICENTER = 51.6495
MEAN_ANOMALY   = 344.3151

EPHEMERIS_TYPE = 0
CLASSIFICATION_TYPE = U
NORAD_CAT_ID   = 67148
ELEMENT_SET_NO = 999
REV_AT_EPOCH   = 227
BSTAR          = .35954579E-3
MEAN_MOTION_DOT = .12721E-3
MEAN_MOTION_DDOT = 0

CCSDS_OMM_VERS = 2.0
CREATION_DATE  = 
ORIGINATOR     = 

OBJECT_NAME    = KUIPER-00241
OBJECT_ID      = 2025-301S
CENTER_NAME    = EARTH
REF_FRAME      = TEME
TIME_SYSTEM    = UTC
MEAN_ELEMENT_THEORY = SGP/SGP4

EPOCH          = 2025-12-25T22:00:01.999584
MEAN_MOTION    = 15.36239494
ECCENTRICITY   = .0002907
INCLINATION    = 51.8744
RA_OF_ASC_NODE = 61.5243
ARG_OF_PERICENTER = 99.3733
MEAN_ANOMALY   = 280.0657

EPHEMERIS_TYPE = 0
CLASSIFICATION_TYPE = U
NORAD_CAT_ID   = 67149
ELEMENT_SET_NO = 999
REV_AT_EPOCH   = 272
BSTAR          = .31250965E-3
MEAN_MOTION_DOT = .1084E-3
MEAN_MOTION_DDOT = 0

CCSDS_OMM_VERS = 2.0
CREATION_DATE  = 
ORIGINATOR     = 

OBJECT_NAME    = KUIPER-00245
OBJECT_ID      = 2025-301T
CENTER_NAME    = EARTH
REF_FRAME      = TEME
TIME_SYSTEM    = UTC
MEAN_ELEMENT_THEORY = SGP/SGP4

EPOCH          = 2025-12-25T22:00:01.999584
MEAN_MOTION    = 15.35626942
ECCENTRICITY   = .00051078
INCLINATION    = 51.8728
RA_OF_ASC_NODE = 61.5733
ARG_OF_PERICENTER = 120.9627
MEAN_ANOMALY   = 236.8627

EPHEMERIS_TYPE = 0
CLASSIFICATION_TYPE = U
NORAD_CAT_ID   = 67150
ELEMENT_SET_NO = 999
REV_AT_EPOCH   = 187
BSTAR          = .26303874E-3
MEAN_MOTION_DOT = .888E-4
MEAN_MOTION_DDOT = 0

CCSDS_OMM_VERS = 2.0
CREATION_DATE  = 
ORIGINATOR     = 

OBJECT_NAME    = KUIPER-00246
OBJECT_ID      = 2025-301U
CENTER_NAME    = EARTH
REF_FRAME      = TEME
TIME_SYSTEM    = UTC
MEAN_ELEMENT_THEORY = SGP/SGP4

EPOCH          = 2025-12-25T22:00:01.999584
MEAN_MOTION    = 15.35884202
ECCENTRICITY   = .00040587
INCLINATION    = 51.8738
RA_OF_ASC_NODE = 61.5478
ARG_OF_PERICENTER = 117.1118
MEAN_ANOMALY   = 252.1342

EPHEMERIS_TYPE = 0
CLASSIFICATION_TYPE = U
NORAD_CAT_ID   = 67151
ELEMENT_SET_NO = 999
REV_AT_EPOCH   = 241
BSTAR          = .39272036E-3
MEAN_MOTION_DOT = .13569E-3
MEAN_MOTION_DDOT = 0

CCSDS_OMM_VERS = 2.0
CREATION_DATE  = 
ORIGINATOR     = 

OBJECT_NAME    = KUIPER-00247
OBJECT_ID      = 2025-301V
CENTER_NAME    = EARTH
REF_FRAME      = TEME
TIME_SYSTEM    = UTC
MEAN_ELEMENT_THEORY = SGP/SGP4

EPOCH          = 2025-12-25T22:00:01.999584
MEAN_MOTION    = 15.33971620
ECCENTRICITY   = .00111626
INCLINATION    = 51.8627
RA_OF_ASC_NODE = 61.6950
ARG_OF_PERICENTER = 152.4203
MEAN_ANOMALY   = 147.4322

EPHEMERIS_TYPE = 0
CLASSIFICATION_TYPE = U
NORAD_CAT_ID   = 67152
ELEMENT_SET_NO = 999
REV_AT_EPOCH   = 230
BSTAR          = .14854422E-3
MEAN_MOTION_DOT = .4586E-4
MEAN_MOTION_DDOT = 0

CCSDS_OMM_VERS = 2.0
CREATION_DATE  = 
ORIGINATOR     = 

OBJECT_NAME    = KUIPER-00248
OBJECT_ID      = 2025-301W
CENTER_NAME    = EARTH
REF_FRAME      = TEME
TIME_SYSTEM    = UTC
MEAN_ELEMENT_THEORY = SGP/SGP4

EPOCH          = 2025-12-25T22:00:01.999584
MEAN_MOTION    = 15.34654743
ECCENTRICITY   = .00087282
INCLINATION    = 51.8676
RA_OF_ASC_NODE = 61.6479
ARG_OF_PERICENTER = 140.6309
MEAN_ANOMALY   = 182.3948

EPHEMERIS_TYPE = 0
CLASSIFICATION_TYPE = U
NORAD_CAT_ID   = 67153
ELEMENT_SET_NO = 999
REV_AT_EPOCH   = 255
BSTAR          = .18753059E-3
MEAN_MOTION_DOT = .6022E-4
MEAN_MOTION_DDOT = 0

CCSDS_OMM_VERS = 2.0
CREATION_DATE  = 
ORIGINATOR     = 

OBJECT_NAME    = KUIPER-00249
OBJECT_ID      = 2025-301X
CENTER_NAME    = EARTH
REF_FRAME      = TEME
TIME_SYSTEM    = UTC
MEAN_ELEMENT_THEORY = SGP/SGP4

EPOCH          = 2025-12-25T22:00:01.999584
MEAN_MOTION    = 15.34777763
ECCENTRICITY   = .00080069
INCLINATION    = 51.8652
RA_OF_ASC_NODE = 61.6333
ARG_OF_PERICENTER = 137.2987
MEAN_ANOMALY   = 193.0637

EPHEMERIS_TYPE = 0
CLASSIFICATION_TYPE = U
NORAD_CAT_ID   = 67154
ELEMENT_SET_NO = 999
REV_AT_EPOCH   = 223
BSTAR          = .16946883E-3
MEAN_MOTION_DOT = .5426E-4
MEAN_MOTION_DDOT = 0

